{
    "links": {
        "self": "http://www.neowsapp.com/rest/v1/neo/54016474?api_key=iIulBulltgU6a56xZRHN4H3l9WmuAYTsLGpBGhQ2"
    },
    "id": "54016474",
    "neo_reference_id": "54016474",
    "name": "(2020 GP1)",
    "designation": "2020 GP1",
    "nasa_jpl_url": "http://ssd.jpl.nasa.gov/sbdb.cgi?sstr=54016474",
    "absolute_magnitude_h": 23.535,
    "estimated_diameter": {
        "kilometers": {
            "estimated_diameter_min": 0.0521861162,
            "estimated_diameter_max": 0.1166917032
        },
        "meters": {
            "estimated_diameter_min": 52.1861161583,
            "estimated_diameter_max": 116.6917032117
        },
        "miles": {
            "estimated_diameter_min": 0.0324269392,
            "estimated_diameter_max": 0.0725088403
        },
        "feet": {
            "estimated_diameter_min": 171.2142973368,
            "estimated_diameter_max": 382.846807565
        }
    },
    "is_potentially_hazardous_asteroid": false,
    "close_approach_data": [
        {
            "close_approach_date": "1931-11-23",
            "close_approach_date_full": "1931-Nov-23 04:40",
            "epoch_date_close_approach": -1202584800000,
            "relative_velocity": {
                "kilometers_per_second": "16.5077637058",
                "kilometers_per_hour": "59427.9493410078",
                "miles_per_hour": "36926.2166335834"
            },
            "miss_distance": {
                "astronomical": "0.189006807",
                "lunar": "73.523647923",
                "kilometers": "28275015.74270109",
                "miles": "17569280.084171442"
            },
            "orbiting_body": "Earth"
        },
        {
            "close_approach_date": "2020-03-26",
            "close_approach_date_full": "2020-Mar-26 06:46",
            "epoch_date_close_approach": 1585205160000,
            "relative_velocity": {
                "kilometers_per_second": "15.5379881812",
                "kilometers_per_hour": "55936.7574524795",
                "miles_per_hour": "34756.9257626254"
            },
            "miss_distance": {
                "astronomical": "0.0585478103",
                "lunar": "22.7750982067",
                "kilometers": "8758627.714044061",
                "miles": "5442358.8959716018"
            },
            "orbiting_body": "Earth"
        }
    ],
    "orbital_data": {
        "orbit_id": "8",
        "orbit_determination_date": "2020-04-29 06:53:19",
        "first_observation_date": "2020-04-03",
        "last_observation_date": "2020-04-27",
        "data_arc_in_days": 24,
        "observations_used": 44,
        "orbit_uncertainty": "7",
        "minimum_orbit_intersection": ".0274398",
        "jupiter_tisserand_invariant": "3.282",
        "epoch_osculation": "2459000.5",
        "eccentricity": ".6432479694131966",
        "semi_major_axis": "2.254522493172205",
        "inclination": "14.87357302102231",
        "ascending_node_longitude": "195.0106309720993",
        "orbital_period": "1236.460610485694",
        "perihelion_distance": ".8043054774428067",
        "perihelion_argument": "293.0247152795062",
        "aphelion_distance": "3.704739508901603",
        "perihelion_time": "2458894.474955310288",
        "mean_anomaly": "30.86957705292635",
        "mean_motion": ".2911536339670283",
        "equinox": "J2000",
        "orbit_class": {
            "orbit_class_type": "APO",
            "orbit_class_description": "Near-Earth asteroid orbits which cross the Earth’s orbit similar to that of 1862 Apollo",
            "orbit_class_range": "a (semi-major axis) > 1.0 AU; q (perihelion) < 1.017 AU"
        }
    },
    "is_sentry_object": false
}